
# Worst residual: 17.57 km
# MJD 60206.000000 (2023 Sep 19  0:00)
1967-040A = NORAD 02765 = Vela 4A
1 02765U 67040A   23262.49919926  .00000000  00000-0  00000-0 0 18159
2 02765 036.0535 031.8344 4569396 246.2694 298.6021 00.21469469    01

# Worst residual: 15.39 km
# MJD 60207.000000 (2023 Sep 20  0:00)
1967-040A = NORAD 02765 = Vela 4A
1 02765U 67040A   23263.49919926  .00000000  00000-0  00000-0 0 18150
2 02765 036.0512 031.8167 4571325 246.4635 015.8355 00.21498116    01

# Worst residual: 1.69 km
# MJD 60208.000000 (2023 Sep 21  0:00)
1967-040A = NORAD 02765 = Vela 4A
1 02765U 67040A   23264.49919926  .00000000  00000-0  00000-0 0 18151
2 02765 036.0538 031.7999 4565946 246.5213 093.2507 00.21516893    08

# Worst residual: 1.23 km
# MJD 60209.000000 (2023 Sep 22  0:00)
1967-040A = NORAD 02765 = Vela 4A
1 02765U 67040A   23265.49919926  .00000000  00000-0  00000-0 0 18152
2 02765 036.0587 031.7878 4568271 246.5650 170.6085 00.21518342    09

# Worst residual: 1.36 km
# MJD 60210.000000 (2023 Sep 23  0:00)
1967-040A = NORAD 02765 = Vela 4A
1 02765U 67040A   23266.49919926  .00000000  00000-0  00000-0 0 18153
2 02765 036.0636 031.7822 4568321 246.6121 247.9664 00.21519388    05

# Worst residual: 14.84 km
# MJD 60211.000000 (2023 Sep 24  0:00)
1967-040A = NORAD 02765 = Vela 4A
1 02765U 67040A   23267.49919926  .00000000  00000-0  00000-0 0 18154
2 02765 036.0697 031.7665 4571627 246.6560 325.3929 00.21514262    08

# Worst residual: 25.05 km
# MJD 60212.000000 (2023 Sep 25  0:00)
1967-040A = NORAD 02765 = Vela 4A
1 02765U 67040A   23268.49919926  .00000000  00000-0  00000-0 0 18155
2 02765 036.0779 031.7774 4581253 246.8513 042.6208 00.21453435    09

# Worst residual: 12.01 km
# MJD 60213.000000 (2023 Sep 26  0:00)
1967-040A = NORAD 02765 = Vela 4A
1 02765U 67040A   23269.49919926  .00000000  00000-0  00000-0 0 18156
2 02765 036.0705 031.7591 4565518 246.7980 120.2297 00.21501341    09

# Worst residual: 3.90 km
# MJD 60214.000000 (2023 Sep 27  0:00)
1967-040A = NORAD 02765 = Vela 4A
1 02765U 67040A   23270.49919926  .00000000  00000-0  00000-0 0 18158
2 02765 036.0731 031.7401 4562844 246.7385 197.8258 00.21506379    09

# Worst residual: 8.23 km
# MJD 60215.000000 (2023 Sep 28  0:00)
1967-040A = NORAD 02765 = Vela 4A
1 02765U 67040A   23271.49919926  .00000000  00000-0  00000-0 0 18159
2 02765 036.0768 031.7173 4558732 246.7945 275.1131 00.21505370    08

# Worst residual: 22.78 km
# MJD 60216.000000 (2023 Sep 29  0:00)
1967-040A = NORAD 02765 = Vela 4A
1 02765U 67040A   23272.49919926  .00000000  00000-0  00000-0 0 18150
2 02765 036.0768 031.7008 4538946 246.9094 352.3285 00.21591144    09

# Worst residual: 25.65 km
# MJD 60217.000000 (2023 Sep 30  0:00)
1967-040A = NORAD 02765 = Vela 4A
1 02765U 67040A   23273.49919926  .00000000  00000-0  00000-0 0 18151
2 02765 036.0914 031.6783 4558502 246.9305 069.6730 00.21511038    03

# Worst residual: 10.41 km
# MJD 60218.000000 (2023 Oct  1  0:00)
1967-040A = NORAD 02765 = Vela 4A
1 02765U 67040A   23274.49919926  .00000000  00000-0  00000-0 0 18152
2 02765 036.1298 031.6978 4579790 246.9058 146.8820 00.21524241    00

# Worst residual: 14.87 km
# MJD 60219.000000 (2023 Oct  2  0:00)
1967-040A = NORAD 02765 = Vela 4A
1 02765U 67040A   23275.49919926  .00000000  00000-0  00000-0 0 18153
2 02765 036.1407 031.7048 4589803 246.7795 224.6849 00.21541996    05

# Worst residual: 27.80 km
# MJD 60220.000000 (2023 Oct  3  0:00)
1967-040A = NORAD 02765 = Vela 4A
1 02765U 67040A   23276.49919926  .00000000  00000-0  00000-0 0 18154
2 02765 036.1438 031.6955 4598960 246.5267 302.6339 00.21467531    04

# Worst residual: 25.05 km
# MJD 60221.000000 (2023 Oct  4  0:00)
1967-040A = NORAD 02765 = Vela 4A
1 02765U 67040A   23277.49919926  .00000000  00000-0  00000-0 0 18155
2 02765 036.1414 031.6805 4605044 246.8011 019.8461 00.21485213    04

# Worst residual: 7.38 km
# MJD 60222.000000 (2023 Oct  5  0:00)
1967-040A = NORAD 02765 = Vela 4A
1 02765U 67040A   23278.49919926  .00000000  00000-0  00000-0 0 18156
2 02765 036.1408 031.6642 4589004 246.8806 097.3664 00.21522096    02

# Worst residual: 13.97 km
# MJD 60223.000000 (2023 Oct  6  0:00)
1967-040A = NORAD 02765 = Vela 4A
1 02765U 67040A   23279.49919926  .00000000  00000-0  00000-0 0 18157
2 02765 036.1290 031.6194 4576171 247.1132 174.4318 00.21476428    00

# Worst residual: 11.11 km
# MJD 60224.000000 (2023 Oct  7  0:00)
1967-040A = NORAD 02765 = Vela 4A
1 02765U 67040A   23280.49919926  .00000000  00000-0  00000-0 0 18159
2 02765 036.1241 031.5268 4572339 247.3853 251.2808 00.21483906    08

# Worst residual: 15.03 km
# MJD 60225.000000 (2023 Oct  8  0:00)
1967-040A = NORAD 02765 = Vela 4A
1 02765U 67040A   23281.49919926  .00000000  00000-0  00000-0 0 18150
2 02765 036.1360 031.4864 4579199 247.5404 328.5463 00.21499231    09

# Worst residual: 21.38 km
# MJD 60226.000000 (2023 Oct  9  0:00)
1967-040A = NORAD 02765 = Vela 4A
1 02765U 67040A   23282.49919926  .00000000  00000-0  00000-0 0 18151
2 02765 036.1413 031.4956 4586074 247.7780 045.7167 00.21448769    08

# Worst residual: 14.51 km
# MJD 60227.000000 (2023 Oct 10  0:00)
1967-040A = NORAD 02765 = Vela 4A
1 02765U 67040A   23283.49919926  .00000000  00000-0  00000-0 0 18152
2 02765 036.1427 031.4810 4577539 247.6456 123.3525 00.21508521    01

# Worst residual: 10.99 km
# MJD 60228.000000 (2023 Oct 11  0:00)
1967-040A = NORAD 02765 = Vela 4A
1 02765U 67040A   23284.49919926  .00000000  00000-0  00000-0 0 18153
2 02765 036.1514 031.4769 4581400 247.4861 201.1872 00.21531043    06

# Worst residual: 6.23 km
# MJD 60229.000000 (2023 Oct 12  0:00)
1967-040A = NORAD 02765 = Vela 4A
1 02765U 67040A   23285.49919926  .00000000  00000-0  00000-0 0 18154
2 02765 036.1566 031.4432 4576500 247.3932 278.8144 00.21499004    06

# Worst residual: 13.09 km
# MJD 60230.000000 (2023 Oct 13  0:00)
1967-040A = NORAD 02765 = Vela 4A
1 02765U 67040A   23286.49919926  .00000000  00000-0  00000-0 0 18155
2 02765 036.1648 031.4154 4562946 247.4927 356.0747 00.21560653    09

# Worst residual: 11.05 km
# MJD 60231.000000 (2023 Oct 14  0:00)
1967-040A = NORAD 02765 = Vela 4A
1 02765U 67040A   23287.49919926  .00000000  00000-0  00000-0 0 18156
2 02765 036.1665 031.4004 4572090 247.5576 073.4406 00.21519263    07

# Worst residual: 2.39 km
# MJD 60232.000000 (2023 Oct 15  0:00)
1967-040A = NORAD 02765 = Vela 4A
1 02765U 67040A   23288.49919926  .00000000  00000-0  00000-0 0 18157
2 02765 036.1717 031.3869 4575962 247.6554 150.6593 00.21504256    02

# Worst residual: 12.80 km
# MJD 60233.000000 (2023 Oct 16  0:00)
1967-040A = NORAD 02765 = Vela 4A
1 02765U 67040A   23289.49919926  .00000000  00000-0  00000-0 0 18158
2 02765 036.1769 031.3778 4577337 247.5880 228.2447 00.21501754    07

# Worst residual: 31.57 km
# MJD 60234.000000 (2023 Oct 17  0:00)
1967-040A = NORAD 02765 = Vela 4A
1 02765U 67040A   23290.49919926  .00000000  00000-0  00000-0 0 18150
2 02765 036.1781 031.3736 4590499 247.3905 306.0107 00.21437428    09
